GLOBALSTAR M035         
1 25851U 99037A   25235.84270672 -.00000041  00000+0  84052-3 0  9999
2 25851  51.9926 264.0911 0013473  91.7114  79.4510 11.04539314103730
GLOBALSTAR M032         
1 25852U 99037B   25235.86061474 -.00000040  00000+0  86112-3 0  9998
2 25852  51.9948  84.5765 0011712 282.1701  77.7786 11.19062541142366
GLOBALSTAR M051         
1 25853U 99037C   25235.96450433 -.00000075  00000+0 -76791-4 0  9999
2 25853  51.9758 237.3886 0000586 338.1282  21.9503 11.42205339140132
GLOBALSTAR M030         
1 25854U 99037D   25235.75390991 -.00000078  00000+0 -70145-4 0  9999
2 25854  51.9896  39.7034 0003412 155.0653 205.0329 11.55113268157855
GLOBALSTAR M048         
1 25872U 99041A   25235.58317154 -.00000089  00000+0 -52082-3 0  9996
2 25872  51.9352 175.9466 0013581 303.6131 227.6146 11.33858508132628
GLOBALSTAR M026         
1 25873U 99041B   25235.81456219 -.00000042  00000+0  82331-3 0  9997
2 25873  52.0046  21.3952 0002000  45.4636 107.9334 11.06849551155970
GLOBALSTAR M043         
1 25874U 99041C   25235.86825218 -.00000025  00000+0  12861-2 0  9993
2 25874  51.9396 285.6161 0013444  68.6690 102.2422 11.25695310130494
GLOBALSTAR M028         
1 25875U 99041D   25235.68876669 -.00000087  00000+0  84706-4 0  9997
2 25875  51.9653 351.7868 0063117 217.4028 142.2431 12.50585948198628
